OBJECT_NAME,OBJECT_ID,EPOCH,MEAN_MOTION,ECCENTRICITY,INCLINATION,RA_OF_ASC_NODE,ARG_OF_PERICENTER,MEAN_ANOMALY,EPHEMERIS_TYPE,CLASSIFICATION_TYPE,NORAD_CAT_ID,ELEMENT_SET_NO,REV_AT_EPOCH,BSTAR,MEAN_MOTION_DOT,MEAN_MOTION_DDOT
INTELSAT 902 (IS-902),2001-039A,2026-06-18T12:41:02.392224,1.00271543,.00043071,6.1204,71.7676,12.4923,322.6674,0,U,26900,999,9070,0,-.292E-5,0
INTELSAT 904 (IS-904),2002-007A,2026-06-18T11:03:47.464128,1.00270286,.00065299,6.9241,69.1697,5.9759,326.0004,0,U,27380,999,5177,0,-.235E-5,0
DIRECTV 5 (TEMPO 1),2002-023A,2026-06-18T10:03:38.852352,1.00271613,.0003143,4.8819,75.2944,13.6987,218.4628,0,U,27426,999,8813,0,-.65E-6,0
INTELSAT 905 (IS-905),2002-027A,2026-06-18T11:11:38.839200,1.00271956,.00038737,6.7576,69.7858,22.2862,205.3245,0,U,27438,999,5137,0,.85E-6,0
GALAXY 3C (G-3C),2002-030A,2026-06-18T09:02:54.336192,1.00271347,.00016011,3.7359,77.9598,30.5698,198.9629,0,U,27445,999,4650,0,-.16E-5,0
INTELSAT 906 (IS-906),2002-041A,2026-06-18T04:57:21.564576,1.00275136,.00043971,5.8051,72.9092,2.8775,329.1640,0,U,27513,999,8703,0,.4E-7,0
GALAXY 13 (HORIZONS-1),2003-044A,2026-06-18T13:55:16.807296,1.00271651,.0002231,1.4226,83.8481,355.3969,246.3787,0,U,27954,999,4658,0,.126E-5,0
INTELSAT 10-02,2004-022A,2026-06-18T09:29:44.263680,1.00270100,.00000252,0.0174,304.7073,284.0787,179.2747,0,U,28358,999,8056,0,-.18E-6,0
DIRECTV 8,2005-019A,2026-06-18T14:14:20.317344,1.00269849,.00029641,0.0194,11.5507,81.9335,267.8847,0,U,28659,999,7708,0,0,0
GALAXY 28 (G-28),2005-022A,2026-06-18T11:04:54.856128,1.00271106,.00028417,3.3016,78.9193,7.7048,319.2277,0,U,28702,999,5198,0,-.208E-5,0
GALAXY 16 (G-16),2006-023A,2026-06-18T12:27:03.731616,1.00271475,.00025065,0.0098,94.1169,349.5713,270.8305,0,U,29236,999,7298,0,-.133E-5,0
DIRECTV 9S,2006-043A,2026-06-18T12:26:26.291904,1.00270963,.00049663,2.4251,80.8865,13.5083,257.7733,0,U,29494,999,5139,0,-.12E-5,0
GALAXY 17 (G-17),2007-016B,2026-06-18T12:31:03.349056,1.00271658,.00046578,2.9764,79.8836,18.4949,271.1316,0,U,31307,999,6981,0,-.213E-5,0
INTELSAT 11 (IS-11),2007-044B,2026-06-18T14:58:08.936256,0.99050198,.00024276,3.5701,78.6527,88.8535,83.4456,0,U,32253,999,6846,0,-.215E-5,0
HORIZONS-2,2007-063B,2026-06-18T12:34:18.037632,1.00272958,.000385,2.6063,80.6082,358.1173,302.7926,0,U,32388,999,6782,0,-.261E-5,0
DIRECTV 11,2008-013A,2026-06-18T12:27:03.731616,1.00271979,.00001522,0.0096,269.4720,187.3657,257.5063,0,U,32729,999,4560,0,-.132E-5,0
GALAXY 18 (G-18),2008-024A,2026-06-18T14:02:53.577312,1.00270366,.000279,0.0153,57.9523,27.4059,269.1864,0,U,32951,999,4586,0,.19E-6,0
INTELSAT 25 (IS-25),2008-034A,2026-06-18T13:02:21.620256,0.99034172,.00034282,2.7143,80.3570,60.6103,77.0177,0,U,33153,999,6570,0,-.189E-5,0
GALAXY 19 (G-19),2008-045A,2026-06-18T12:27:41.172192,1.00271189,.00025139,0.0328,263.5639,188.3277,264.7905,0,U,33376,999,6491,0,-.145E-5,0
FM-5,2009-034A,2026-06-18T12:30:48.373344,1.00277833,.00006218,0.0186,296.2063,11.6391,60.4535,0,U,35493,999,4665,0,-.207E-5,0
INTELSAT 14 (IS-14),2009-064A,2026-06-18T10:59:47.846688,1.00272000,.00022958,0.0119,310.1717,135.4044,301.0751,0,U,36097,999,6061,0,-.28E-5,0
INTELSAT 15 (IS-15),2009-067A,2026-06-18T13:19:39.808704,1.00272378,.00021001,0.0150,336.6544,110.8384,104.3585,0,U,36106,999,4124,0,-.191E-5,0
DIRECTV 12,2009-075A,2026-06-18T12:26:03.827904,1.00271785,.00003666,0.0436,170.7708,304.4205,235.3562,0,U,36131,999,4656,0,-.11E-5,0
INTELSAT 16 (IS-16),2010-006A,2026-06-18T12:33:33.109632,1.00272434,.0001928,0.0106,326.8305,134.2807,277.8288,0,U,36397,999,5966,0,-.251E-5,0
XM-5,2010-053A,2026-06-18T14:05:08.362176,1.00270439,.00026529,0.0620,273.1116,289.9429,159.8519,0,U,37185,999,5749,0,-.29E-6,0
INTELSAT 17 (IS-17),2010-065B,2026-06-18T13:14:06.721152,1.00272120,.00028882,0.0244,72.7578,40.1363,58.3982,0,U,37238,999,5326,0,0,0
INTELSAT 28 (IS-28),2011-016A,2026-06-18T09:21:00.101664,1.00271560,.00035959,1.8103,82.6007,6.0263,286.5334,0,U,37392,999,5329,0,-.232E-5,0
INTELSAT 18 (IS-18),2011-056A,2026-06-18T13:46:40.131840,1.00270855,.00017188,0.0385,272.8390,174.1667,206.4639,0,U,37834,999,5382,0,.46E-6,0
INTELSAT 22 (IS-22),2012-011A,2026-06-18T11:33:14.638752,1.00272371,.00015408,0.0136,37.1505,53.9901,60.9919,0,U,38098,999,720,0,-.65E-6,0
INTELSAT 19 (IS-19),2012-030A,2026-06-18T13:42:40.515264,1.00271393,.00029268,0.0189,3.4111,92.3544,182.7035,0,U,38356,999,5046,0,-.63E-6,0
INTELSAT 20 (IS-20),2012-043A,2026-06-18T13:14:36.672576,1.00270903,.00018198,0.0365,68.9244,108.0346,356.9762,0,U,38740,999,5076,0,0,0
