INTELSAT 902 (IS-902)   
1 26900U 01039A   26169.52849991 -.00000292  00000+0  00000+0 0  9993
2 26900   6.1204  71.7676 0004307  12.4923 322.6674  1.00271543 90700
INTELSAT 904 (IS-904)   
1 27380U 02007A   26169.46096602 -.00000235  00000+0  00000+0 0  9995
2 27380   6.9241  69.1697 0006529   5.9759 326.0004  1.00270286 51770
DIRECTV 5 (TEMPO 1)     
1 27426U 02023A   26169.41919968 -.00000065  00000+0  00000+0 0  9999
2 27426   4.8819  75.2944 0003143  13.6987 218.4628  1.00271613 88131
INTELSAT 905 (IS-905)   
1 27438U 02027A   26169.46642175  .00000085  00000+0  00000+0 0  9995
2 27438   6.7576  69.7858 0003873  22.2862 205.3245  1.00271956 51371
GALAXY 3C (G-3C)        
1 27445U 02030A   26169.37701778 -.00000160  00000+0  00000+0 0  9997
2 27445   3.7359  77.9598 0001601  30.5698 198.9629  1.00271347 46509
INTELSAT 906 (IS-906)   
1 27513U 02041A   26169.20649959  .00000004  00000+0  00000+0 0  9995
2 27513   5.8051  72.9092 0004397   2.8775 329.1640  1.00275136 87038
GALAXY 13 (HORIZONS-1)  
1 27954U 03044A   26169.58005564  .00000126  00000+0  00000+0 0  9992
2 27954   1.4226  83.8481 0002231 355.3969 246.3787  1.00271651 46587
INTELSAT 10-02          
1 28358U 04022A   26169.39565120 -.00000018  00000+0  00000+0 0  9997
2 28358   0.0174 304.7073 0000025 284.0787 179.2747  1.00270100 80564
DIRECTV 8               
1 28659U 05019A   26169.59329071  .00000000  00000+0  00000+0 0  9993
2 28659   0.0194  11.5507 0002964  81.9335 267.8847  1.00269849 77088
GALAXY 28 (G-28)        
1 28702U 05022A   26169.46174602 -.00000208  00000+0  00000+0 0  9991
2 28702   3.3016  78.9193 0002841   7.7048 319.2277  1.00271106 51984
GALAXY 16 (G-16)        
1 29236U 06023A   26169.51879319 -.00000133  00000+0  00000+0 0  9996
2 29236   0.0098  94.1169 0002506 349.5713 270.8305  1.00271475 72984
DIRECTV 9S              
1 29494U 06043A   26169.51835986 -.00000120  00000+0  00000+0 0  9992
2 29494   2.4251  80.8865 0004966  13.5083 257.7733  1.00270963 51394
GALAXY 17 (G-17)        
1 31307U 07016B   26169.52156654 -.00000213  00000+0  00000+0 0  9991
2 31307   2.9764  79.8836 0004657  18.4949 271.1316  1.00271658 69817
INTELSAT 11 (IS-11)     
1 32253U 07044B   26169.62371454 -.00000215  00000+0  00000+0 0  9993
2 32253   3.5701  78.6527 0002427  88.8535  83.4456  0.99050198 68465
HORIZONS-2              
1 32388U 07063B   26169.52381988 -.00000261  00000+0  00000+0 0  9996
2 32388   2.6063  80.6082 0003850 358.1173 302.7926  1.00272958 67827
DIRECTV 11              
1 32729U 08013A   26169.51879319 -.00000132  00000+0  00000+0 0  9997
2 32729   0.0096 269.4720 0000152 187.3657 257.5063  1.00271979 45604
GALAXY 18 (G-18)        
1 32951U 08024A   26169.58534233  .00000019  00000+0  00000+0 0  9999
2 32951   0.0153  57.9523 0002790  27.4059 269.1864  1.00270366 45861
INTELSAT 25 (IS-25)     
1 33153U 08034A   26169.54330579 -.00000189  00000+0  00000+0 0  9997
2 33153   2.7143  80.3570 0003428  60.6103  77.0177  0.99034172 65702
GALAXY 19 (G-19)        
1 33376U 08045A   26169.51922653 -.00000145  00000+0  00000+0 0  9995
2 33376   0.0328 263.5639 0002513 188.3277 264.7905  1.00271189 64910
FM-5                    
1 35493U 09034A   26169.52139321 -.00000207  00000+0  00000+0 0  9998
2 35493   0.0186 296.2063 0000621  11.6391  60.4535  1.00277833 46654
INTELSAT 14 (IS-14)     
1 36097U 09064A   26169.45819267 -.00000280  00000+0  00000+0 0  9999
2 36097   0.0119 310.1717 0002295 135.4044 301.0751  1.00272000 60619
INTELSAT 15 (IS-15)     
1 36106U 09067A   26169.55532186 -.00000191  00000+0  00000+0 0  9997
2 36106   0.0150 336.6544 0002100 110.8384 104.3585  1.00272378 41240
DIRECTV 12              
1 36131U 09075A   26169.51809986 -.00000110  00000+0  00000+0 0  9996
2 36131   0.0436 170.7708 0000366 304.4205 235.3562  1.00271785 46560
INTELSAT 16 (IS-16)     
1 36397U 10006A   26169.52329988 -.00000251  00000+0  00000+0 0  9992
2 36397   0.0106 326.8305 0001928 134.2807 277.8288  1.00272434 59660
XM-5                    
1 37185U 10053A   26169.58690234 -.00000029  00000+0  00000+0 0  9994
2 37185   0.0620 273.1116 0002652 289.9429 159.8519  1.00270439 57492
INTELSAT 17 (IS-17)     
1 37238U 10065B   26169.55146668  .00000000  00000+0  00000+0 0  9998
2 37238   0.0244  72.7578 0002888  40.1363  58.3982  1.00272120 53260
INTELSAT 28 (IS-28)     
1 37392U 11016A   26169.38958451 -.00000232  00000+0  00000+0 0  9996
2 37392   1.8103  82.6007 0003595   6.0263 286.5334  1.00271560 53293
INTELSAT 18 (IS-18)     
1 37834U 11056A   26169.57407560  .00000046  00000+0  00000+0 0  9994
2 37834   0.0385 272.8390 0001718 174.1667 206.4639  1.00270855 53829
INTELSAT 22 (IS-22)     
1 38098U 12011A   26169.48141943 -.00000065  00000+0  00000+0 0  9991
2 38098   0.0136  37.1505 0001540  53.9901  60.9919  1.00272371  7204
INTELSAT 19 (IS-19)     
1 38356U 12030A   26169.57130226 -.00000063  00000+0  00000+0 0  9999
2 38356   0.0189   3.4111 0002926  92.3544 182.7035  1.00271393 50468
INTELSAT 20 (IS-20)     
1 38740U 12043A   26169.55181334  .00000000  00000+0  00000+0 0  9994
2 38740   0.0365  68.9244 0001819 108.0346 356.9762  1.00270903 50760
